[{"OBJECT_NAME":"STARLINK-31976","OBJECT_ID":"2024-100C","EPOCH":"2026-03-09T12:14:46.048416","MEAN_MOTION":15.27599527,"ECCENTRICITY":0.00017707,"INCLINATION":43.0015,"RA_OF_ASC_NODE":130.3389,"ARG_OF_PERICENTER":234.8036,"MEAN_ANOMALY":125.265,"EPHEMERIS_TYPE":0,"CLASSIFICATION_TYPE":"U","NORAD_CAT_ID":59887,"ELEMENT_SET_NO":999,"REV_AT_EPOCH":10108,"BSTAR":-0.00016273516,"MEAN_MOTION_DOT":-4.74e-5,"MEAN_MOTION_DDOT":0},{"OBJECT_NAME":"CZ-2C DEB","OBJECT_ID":"2018-056F","EPOCH":"2026-03-09T10:57:26.102304","MEAN_MOTION":15.27739248,"ECCENTRICITY":0.00119172,"INCLINATION":98.1188,"RA_OF_ASC_NODE":250.032,"ARG_OF_PERICENTER":4.6998,"MEAN_ANOMALY":355.4349,"EPHEMERIS_TYPE":0,"CLASSIFICATION_TYPE":"U","NORAD_CAT_ID":43534,"ELEMENT_SET_NO":999,"REV_AT_EPOCH":41855,"BSTAR":0.00085537155,"MEAN_MOTION_DOT":0.00023193,"MEAN_MOTION_DDOT":0}]
